OBJECT_NAME,OBJECT_ID,EPOCH,MEAN_MOTION,ECCENTRICITY,INCLINATION,RA_OF_ASC_NODE,ARG_OF_PERICENTER,MEAN_ANOMALY,EPHEMERIS_TYPE,CLASSIFICATION_TYPE,NORAD_CAT_ID,ELEMENT_SET_NO,REV_AT_EPOCH,BSTAR,MEAN_MOTION_DOT,MEAN_MOTION_DDOT
CENTISPACE-1 GROUP 05 OBJECT B,2026-138B,2026-07-20T21:25:59.310048,14.15653441,.00109476,55.1392,156.6792,357.1897,2.9014,0,U,69583,999,479,.17663611E-3,.194E-5,0
CENTISPACE-1 GROUP 05 OBJECT C,2026-138C,2026-07-20T21:23:05.413632,14.15736067,.00108906,55.1398,156.6774,358.9632,1.1318,0,U,69584,999,479,.14330372E-3,.129E-5,0
CENTISPACE-1 GROUP 05 OBJECT D,2026-138D,2026-07-20T06:02:03.249600,14.15919543,.00104168,55.1392,158.9942,356.9650,3.1259,0,U,69585,999,470,.67299937E-4,-.2E-6,0
CENTISPACE-1 GROUP 05 OBJECT E,2026-138E,2026-07-20T21:14:42.875808,14.15986601,.00102097,55.1384,156.6452,359.0703,1.0251,0,U,69586,999,479,.77072589E-4,-.1E-7,0
CENTISPACE-1 GROUP 05 OBJECT F,2026-138F,2026-07-20T19:35:26.053728,14.15910316,.0010123,55.1388,156.9166,2.4796,357.6227,0,U,69587,999,478,.92106407E-4,.29E-6,0
CENTISPACE-1 GROUP 05 OBJECT G,2026-138G,2026-07-20T21:11:26.189664,14.16072449,.00094106,55.1386,156.6321,2.8938,357.2089,0,U,69588,999,479,.34451817E-4,-.85E-6,0
SPACEMOBILE-008,2026-139A,2026-07-20T21:36:45.202752,15.12808185,.00052595,52.9952,109.5048,70.1086,290.0472,0,U,69589,999,508,.34862622E-4,.318E-5,0
SPACEMOBILE-009,2026-139B,2026-07-20T21:40:09.073920,15.12707117,.00055559,52.9943,109.5135,66.3129,293.8445,0,U,69590,999,508,.81933873E-4,.115E-4,0
SPACEMOBILE-010,2026-139C,2026-07-20T21:45:31.439232,15.12543979,.00055394,52.9949,109.5396,58.9891,301.1643,0,U,69591,999,509,.79124741E-4,.1095E-4,0
KUIPER-00423,2026-140A,2026-07-20T09:05:38.112576,15.38560785,.0013202,51.8792,237.9442,289.5860,70.3702,0,U,69592,999,634,.43450976E-3,.16485E-3,0
KUIPER-00428,2026-140B,2026-07-20T19:30:38.200896,15.37029240,.00081227,51.8796,236.3415,48.9308,311.2380,0,U,69593,999,640,.36847211E-3,.13201E-3,0
KUIPER-00481,2026-140C,2026-07-20T14:05:13.472736,15.37897687,.0010893,51.8786,237.0855,310.2671,49.7363,0,U,69594,999,637,.1245E-3,.4324E-4,0
KUIPER-00490,2026-140D,2026-07-20T19:00:05.488416,15.37966683,.00073509,51.8758,236.1933,358.5273,1.5691,0,U,69595,999,640,.44485037E-3,.16527E-3,0
KUIPER-00493,2026-140E,2026-07-20T22:00:01.999584,15.29591528,.0008782,51.8826,236.0105,57.2904,70.9570,0,U,69596,999,582,.14021126E-2,.40696E-3,0
KUIPER-00496,2026-140F,2026-07-20T11:05:12.047136,15.34039227,.00109797,51.8772,238.4717,68.8851,291.3307,0,U,69597,999,634,.14757112E-3,.4563E-4,0
KUIPER-00513,2026-140G,2026-07-20T11:06:27.039744,15.38226965,.00078389,51.8789,237.7530,356.1197,3.9728,0,U,69598,999,635,.30798981E-3,.11412E-3,0
KUIPER-00516,2026-140H,2026-07-20T09:47:35.011968,15.37661206,.00073966,51.8781,238.1256,13.1130,347.0048,0,U,69599,999,634,.20438938E-3,.7293E-4,0
KUIPER-00517,2026-140J,2026-07-20T10:41:38.630400,15.38832216,.00106042,51.8759,237.6291,312.3615,47.6473,0,U,69600,999,635,.42506374E-3,.16247E-3,0
KUIPER-00520,2026-140K,2026-07-20T11:22:09.775200,15.37720467,.00069189,51.8797,237.8292,12.7706,347.3455,0,U,69601,999,635,.3901944E-3,.14325E-3,0
KUIPER-00522,2026-140L,2026-07-20T09:04:16.562208,15.38666541,.00126486,51.8770,237.9323,285.9720,73.9874,0,U,69602,999,634,.43557542E-3,.16581E-3,0
KUIPER-00528,2026-140M,2026-07-20T11:26:58.260480,15.37431260,.00057306,51.8765,237.8372,21.6458,338.4770,0,U,69603,999,635,.34782144E-3,.12599E-3,0
KUIPER-00532,2026-140N,2026-07-20T11:47:51.585792,15.36570698,.0005386,51.8777,237.9299,45.1343,315.0080,0,U,69604,999,635,.46864267E-3,.16644E-3,0
KUIPER-00533,2026-140P,2026-07-20T11:00:08.879904,15.38352154,.0008086,51.8768,237.7184,346.1760,13.9005,0,U,69605,999,635,.4353022E-3,.16373E-3,0
KUIPER-00534,2026-140Q,2026-07-20T19:50:51.806400,15.38814753,.00133735,51.8802,235.7020,289.1220,70.8319,0,U,69606,999,641,.56940793E-3,.21929E-3,0
KUIPER-00537,2026-140R,2026-07-20T22:00:01.999584,15.31428013,.00084657,51.8800,236.2957,75.4886,282.8547,0,U,69607,999,572,-.76515415E-1,-.2124323E-1,0
KUIPER-00538,2026-140S,2026-07-20T09:44:35.995488,15.37803546,.00068475,51.8793,238.1190,1.2868,358.8136,0,U,69608,999,634,.28468149E-3,.10367E-3,0
KUIPER-00540,2026-140T,2026-07-20T19:27:16.792992,15.37046111,.00065398,51.8814,236.3321,39.0306,321.1151,0,U,69609,999,640,.38756764E-3,.1391E-3,0
KUIPER-00541,2026-140U,2026-07-20T07:52:31.279584,15.38284409,.0007716,51.8800,238.3571,336.9767,23.0873,0,U,69610,999,633,.34357E-3,.12802E-3,0
KUIPER-00542,2026-140V,2026-07-20T22:00:01.999584,15.38343164,.00077741,51.8768,235.4796,325.5471,62.9067,0,U,69611,999,544,.11571869E-2,.44336E-3,0
KUIPER-00543,2026-140W,2026-07-20T08:39:06.403392,15.36903174,.0008069,51.8785,238.5466,53.1774,306.9952,0,U,69612,999,633,.30587E-3,.10842E-3,0
